{
  "type": "FeatureCollection",
  "features": [
    {
      "type": "Feature",
      "properties": {
        "norad_id": 31294,
        "name": "FENGYUN 1C DEB",
        "group": "fengyun-1c-debris",
        "lat": 67.22329033366529,
        "lon": -43.22066304534036,
        "alt_km": 814.021122522634,
        "timestamp": "2025-12-07T22:37:43.361568+00:00",
        "meta_object_name": "FENGYUN 1C DEB",
        "meta_object_id": "1999-025BPC",
        "meta_epoch": "2025-12-06T22:33:20.574144",
        "meta_mean_motion": 14.15292834,
        "meta_eccentricity": 0.00999897,
        "meta_inclination": 98.5424,
        "meta_ra_of_asc_node": 336.7936,
        "meta_arg_of_pericenter": 357.8467,
        "meta_mean_anomaly": 2.2263,
        "meta_ephemeris_type": 0,
        "meta_classification_type": "U",
        "meta_norad_cat_id": 31294,
        "meta_element_set_no": 999,
        "meta_rev_at_epoch": 96771,
        "meta_bstar": 0.00083690794,
        "meta_mean_motion_dot": 1.668e-05,
        "meta_mean_motion_ddot": 0,
        "tle_line1": "1 31294U 99025BPC 25340.93982146  .00001668  00000+0  83691-3 0  9990",
        "tle_line2": "2 31294  98.5424 336.7936 0099989 357.8467   2.2263 14.15292834967718"
      },
      "geometry": {
        "type": "Point",
        "coordinates": [
          -43.22066304534036,
          67.22329033366529
        ]
      }
    },
    {
      "type": "Feature",
      "properties": {
        "norad_id": 31295,
        "name": "FENGYUN 1C DEB",
        "group": "fengyun-1c-debris",
        "lat": -25.93645609190525,
        "lon": 171.41239242076955,
        "alt_km": 890.0210927653143,
        "timestamp": "2025-12-07T22:37:43.361578+00:00",
        "meta_object_name": "FENGYUN 1C DEB",
        "meta_object_id": "1999-025BPD",
        "meta_epoch": "2025-12-07T05:33:44.559936",
        "meta_mean_motion": 13.96828393,
        "meta_eccentricity": 0.00766436,
        "meta_inclination": 98.3171,
        "meta_ra_of_asc_node": 166.6893,
        "meta_arg_of_pericenter": 266.8529,
        "meta_mean_anomaly": 92.3864,
        "meta_ephemeris_type": 0,
        "meta_classification_type": "U",
        "meta_norad_cat_id": 31295,
        "meta_element_set_no": 999,
        "meta_rev_at_epoch": 95426,
        "meta_bstar": 0.00037815882,
        "meta_mean_motion_dot": 5e-06,
        "meta_mean_motion_ddot": 0,
        "tle_line1": "1 31295U 99025BPD 25341.23176574  .00000500  00000+0  37816-3 0  9997",
        "tle_line2": "2 31295  98.3171 166.6893 0076643 266.8529  92.3864 13.96828393954264"
      },
      "geometry": {
        "type": "Point",
        "coordinates": [
          171.41239242076955,
          -25.93645609190525
        ]
      }
    },
    {
      "type": "Feature",
      "properties": {
        "norad_id": 31296,
        "name": "FENGYUN 1C DEB",
        "group": "fengyun-1c-debris",
        "lat": -65.4399111435297,
        "lon": -83.243720890104,
        "alt_km": 657.557828475994,
        "timestamp": "2025-12-07T22:37:43.361589+00:00",
        "meta_object_name": "FENGYUN 1C DEB",
        "meta_object_id": "1999-025BPE",
        "meta_epoch": "2025-12-06T04:29:16.171872",
        "meta_mean_motion": 14.7089795,
        "meta_eccentricity": 0.00198944,
        "meta_inclination": 99.0681,
        "meta_ra_of_asc_node": 254.3483,
        "meta_arg_of_pericenter": 239.679,
        "meta_mean_anomaly": 120.2446,
        "meta_ephemeris_type": 0,
        "meta_classification_type": "U",
        "meta_norad_cat_id": 31296,
        "meta_element_set_no": 999,
        "meta_rev_at_epoch": 97253,
        "meta_bstar": 0.0079666441,
        "meta_mean_motion_dot": 0.00049198,
        "meta_mean_motion_ddot": 0,
        "tle_line1": "1 31296U 99025BPE 25340.18699273  .00049198  00000+0  79666-2 0  9991",
        "tle_line2": "2 31296  99.0681 254.3483 0019894 239.6790 120.2446 14.70897950972537"
      },
      "geometry": {
        "type": "Point",
        "coordinates": [
          -83.243720890104,
          -65.4399111435297
        ]
      }
    },
    {
      "type": "Feature",
      "properties": {
        "norad_id": 31297,
        "name": "FENGYUN 1C DEB",
        "group": "fengyun-1c-debris",
        "lat": -64.50649164817527,
        "lon": 137.74843877446128,
        "alt_km": 800.4232752143871,
        "timestamp": "2025-12-07T22:37:43.361599+00:00",
        "meta_object_name": "FENGYUN 1C DEB",
        "meta_object_id": "1999-025BPF",
        "meta_epoch": "2025-12-05T08:26:35.145024",
        "meta_mean_motion": 14.57019699,
        "meta_eccentricity": 0.01395772,
        "meta_inclination": 98.9341,
        "meta_ra_of_asc_node": 115.7079,
        "meta_arg_of_pericenter": 145.2394,
        "meta_mean_anomaly": 245.0397,
        "meta_ephemeris_type": 0,
        "meta_classification_type": "U",
        "meta_norad_cat_id": 31297,
        "meta_element_set_no": 999,
        "meta_rev_at_epoch": 99208,
        "meta_bstar": 0.0010684729,
        "meta_mean_motion_dot": 5.435e-05,
        "meta_mean_motion_ddot": 0,
        "tle_line1": "1 31297U 99025BPF 25339.35179566  .00005435  00000+0  10685-2 0  9999",
        "tle_line2": "2 31297  98.9341 115.7079 0139577 145.2394 245.0397 14.57019699992087"
      },
      "geometry": {
        "type": "Point",
        "coordinates": [
          137.74843877446128,
          -64.50649164817527
        ]
      }
    },
    {
      "type": "Feature",
      "properties": {
        "norad_id": 31300,
        "name": "FENGYUN 1C DEB",
        "group": "fengyun-1c-debris",
        "lat": -57.51128367292121,
        "lon": -134.35571062507472,
        "alt_km": 891.4187777613824,
        "timestamp": "2025-12-07T22:37:43.361610+00:00",
        "meta_object_name": "FENGYUN 1C DEB",
        "meta_object_id": "1999-025BPJ",
        "meta_epoch": "2025-12-07T04:40:12.393696",
        "meta_mean_motion": 14.15087445,
        "meta_eccentricity": 0.00608105,
        "meta_inclination": 99.543,
        "meta_ra_of_asc_node": 60.1621,
        "meta_arg_of_pericenter": 75.8167,
        "meta_mean_anomaly": 312.8612,
        "meta_ephemeris_type": 0,
        "meta_classification_type": "U",
        "meta_norad_cat_id": 31300,
        "meta_element_set_no": 999,
        "meta_rev_at_epoch": 96096,
        "meta_bstar": 0.0019973291,
        "meta_mean_motion_dot": 3.894e-05,
        "meta_mean_motion_ddot": 0,
        "tle_line1": "1 31300U 99025BPJ 25341.19458789  .00003894  00000+0  19973-2 0  9992",
        "tle_line2": "2 31300  99.5430  60.1621 0060810  75.8167 312.8612 14.15087445960966"
      },
      "geometry": {
        "type": "Point",
        "coordinates": [
          -134.35571062507472,
          -57.51128367292121
        ]
      }
    },
    {
      "type": "Feature",
      "properties": {
        "norad_id": 31302,
        "name": "FENGYUN 1C DEB",
        "group": "fengyun-1c-debris",
        "lat": -43.35523315280351,
        "lon": -165.39436831739516,
        "alt_km": 824.554366236941,
        "timestamp": "2025-12-07T22:37:43.361620+00:00",
        "meta_object_name": "FENGYUN 1C DEB",
        "meta_object_id": "1999-025BPL",
        "meta_epoch": "2025-12-05T14:46:32.923776",
        "meta_mean_motion": 14.27462928,
        "meta_eccentricity": 0.00274625,
        "meta_inclination": 99.4134,
        "meta_ra_of_asc_node": 21.1132,
        "meta_arg_of_pericenter": 75.788,
        "meta_mean_anomaly": 75.4083,
        "meta_ephemeris_type": 0,
        "meta_classification_type": "U",
        "meta_norad_cat_id": 31302,
        "meta_element_set_no": 999,
        "meta_rev_at_epoch": 96256,
        "meta_bstar": 0.0026425456,
        "meta_mean_motion_dot": 6.469e-05,
        "meta_mean_motion_ddot": 0,
        "tle_line1": "1 31302U 99025BPL 25339.61565884  .00006469  00000+0  26425-2 0  9994",
        "tle_line2": "2 31302  99.4134  21.1132 0027462  75.7880  75.4083 14.27462928962567"
      },
      "geometry": {
        "type": "Point",
        "coordinates": [
          -165.39436831739516,
          -43.35523315280351
        ]
      }
    },
    {
      "type": "Feature",
      "properties": {
        "norad_id": 31303,
        "name": "FENGYUN 1C DEB",
        "group": "fengyun-1c-debris",
        "lat": -56.85077043579471,
        "lon": 164.72715702325448,
        "alt_km": 860.4776062234414,
        "timestamp": "2025-12-07T22:37:43.361631+00:00",
        "meta_object_name": "FENGYUN 1C DEB",
        "meta_object_id": "1999-025BPM",
        "meta_epoch": "2025-12-06T18:16:34.227264",
        "meta_mean_motion": 14.11021283,
        "meta_eccentricity": 0.0011323,
        "meta_inclination": 98.7049,
        "meta_ra_of_asc_node": 357.149,
        "meta_arg_of_pericenter": 168.4092,
        "meta_mean_anomaly": 191.7343,
        "meta_ephemeris_type": 0,
        "meta_classification_type": "U",
        "meta_norad_cat_id": 31303,
        "meta_element_set_no": 999,
        "meta_rev_at_epoch": 96234,
        "meta_bstar": 0.00022749996,
        "meta_mean_motion_dot": 3.67e-06,
        "meta_mean_motion_ddot": 0,
        "tle_line1": "1 31303U 99025BPM 25340.76150726  .00000367  00000+0  22750-3 0  9997",
        "tle_line2": "2 31303  98.7049 357.1490 0011323 168.4092 191.7343 14.11021283962343"
      },
      "geometry": {
        "type": "Point",
        "coordinates": [
          164.72715702325448,
          -56.85077043579471
        ]
      }
    }
  ]
}